[Satellite]
VERSION=1.1
NAME=CZ-6A DEB
NICKNAME=CZ-6A DEB
TLE1=1 54435U 22151FK  22341.97845035  .00009616  00000+0  19208-2 0  9998
TLE2=2 54435  99.0793 349.9756 0213301 226.3566 131.9766 14.48692632  3554
STATUS=0
